{
  "type": "FeatureCollection",
  "features": [
    {
      "type": "Feature",
      "properties": {
        "norad_id": 66531,
        "name": "STARLINK-35960",
        "group": "last-30-days",
        "lat": 5.362216885924785,
        "lon": 77.9771528665166,
        "alt_km": 410.37185366891754,
        "timestamp": "2025-12-09T14:52:24.941668+00:00",
        "meta_object_name": "STARLINK-35960",
        "meta_object_id": "2025-265R",
        "meta_epoch": "2025-12-09T06:00:02.000160",
        "meta_mean_motion": 15.53422533,
        "meta_eccentricity": 0.00016473,
        "meta_inclination": 43.0001,
        "meta_ra_of_asc_node": 74.3659,
        "meta_arg_of_pericenter": 272.7542,
        "meta_mean_anomaly": 186.1745,
        "meta_ephemeris_type": 0,
        "meta_classification_type": "U",
        "meta_norad_cat_id": 66531,
        "meta_element_set_no": 999,
        "meta_rev_at_epoch": 443,
        "meta_bstar": -0.032099878,
        "meta_mean_motion_dot": -0.01846467,
        "meta_mean_motion_ddot": 0,
        "tle_line1": "1 66531U 25265R   25343.25002315 -.01846467  00000+0 -32100-1 0  9990",
        "tle_line2": "2 66531  43.0001  74.3659 0001647 272.7542 186.1745 15.53422533  4438"
      },
      "geometry": {
        "type": "Point",
        "coordinates": [
          77.9771528665166,
          5.362216885924785
        ]
      }
    },
    {
      "type": "Feature",
      "properties": {
        "norad_id": 66532,
        "name": "STARLINK-35914",
        "group": "last-30-days",
        "lat": 6.660909000323478,
        "lon": 79.39105898876024,
        "alt_km": 410.1502884680085,
        "timestamp": "2025-12-09T14:52:24.941678+00:00",
        "meta_object_name": "STARLINK-35914",
        "meta_object_id": "2025-265S",
        "meta_epoch": "2025-12-09T06:00:02.000160",
        "meta_mean_motion": 15.53422908,
        "meta_eccentricity": 0.00016746,
        "meta_inclination": 43.0001,
        "meta_ra_of_asc_node": 74.3615,
        "meta_arg_of_pericenter": 275.4792,
        "meta_mean_anomaly": 185.3628,
        "meta_ephemeris_type": 0,
        "meta_classification_type": "U",
        "meta_norad_cat_id": 66532,
        "meta_element_set_no": 999,
        "meta_rev_at_epoch": 443,
        "meta_bstar": -0.032017676,
        "meta_mean_motion_dot": -0.01842323,
        "meta_mean_motion_ddot": 0,
        "tle_line1": "1 66532U 25265S   25343.25002315 -.01842323  00000+0 -32018-1 0  9996",
        "tle_line2": "2 66532  43.0001  74.3615 0001674 275.4792 185.3628 15.53422908  4435"
      },
      "geometry": {
        "type": "Point",
        "coordinates": [
          79.39105898876024,
          6.660909000323478
        ]
      }
    },
    {
      "type": "Feature",
      "properties": {
        "norad_id": 66533,
        "name": "STARLINK-35707",
        "group": "last-30-days",
        "lat": 7.955496869393969,
        "lon": 80.81211074341448,
        "alt_km": 410.07572368401907,
        "timestamp": "2025-12-09T14:52:24.941691+00:00",
        "meta_object_name": "STARLINK-35707",
        "meta_object_id": "2025-265T",
        "meta_epoch": "2025-12-09T06:00:02.000160",
        "meta_mean_motion": 15.53415326,
        "meta_eccentricity": 0.00015594,
        "meta_inclination": 42.9999,
        "meta_ra_of_asc_node": 74.3567,
        "meta_arg_of_pericenter": 272.2433,
        "meta_mean_anomaly": 190.5208,
        "meta_ephemeris_type": 0,
        "meta_classification_type": "U",
        "meta_norad_cat_id": 66533,
        "meta_element_set_no": 999,
        "meta_rev_at_epoch": 443,
        "meta_bstar": -0.031828585,
        "meta_mean_motion_dot": -0.01832167,
        "meta_mean_motion_ddot": 0,
        "tle_line1": "1 66533U 25265T   25343.25002315 -.01832167  00000+0 -31829-1 0  9991",
        "tle_line2": "2 66533  42.9999  74.3567 0001559 272.2433 190.5208 15.53415326  4433"
      },
      "geometry": {
        "type": "Point",
        "coordinates": [
          80.81211074341448,
          7.955496869393969
        ]
      }
    },
    {
      "type": "Feature",
      "properties": {
        "norad_id": 66534,
        "name": "STARLINK-35976",
        "group": "last-30-days",
        "lat": 9.246572221933107,
        "lon": 82.2442718926146,
        "alt_km": 409.8814349272543,
        "timestamp": "2025-12-09T14:52:24.941701+00:00",
        "meta_object_name": "STARLINK-35976",
        "meta_object_id": "2025-265U",
        "meta_epoch": "2025-12-09T06:00:02.000160",
        "meta_mean_motion": 15.53419131,
        "meta_eccentricity": 0.00016488,
        "meta_inclination": 43.0002,
        "meta_ra_of_asc_node": 74.3526,
        "meta_arg_of_pericenter": 274.6458,
        "meta_mean_anomaly": 190.0341,
        "meta_ephemeris_type": 0,
        "meta_classification_type": "U",
        "meta_norad_cat_id": 66534,
        "meta_element_set_no": 999,
        "meta_rev_at_epoch": 443,
        "meta_bstar": -0.031939025,
        "meta_mean_motion_dot": -0.01838075,
        "meta_mean_motion_ddot": 0,
        "tle_line1": "1 66534U 25265U   25343.25002315 -.01838075  00000+0 -31939-1 0  9998",
        "tle_line2": "2 66534  43.0002  74.3526 0001648 274.6458 190.0341 15.53419131  4439"
      },
      "geometry": {
        "type": "Point",
        "coordinates": [
          82.2442718926146,
          9.246572221933107
        ]
      }
    },
    {
      "type": "Feature",
      "properties": {
        "norad_id": 66535,
        "name": "STARLINK-35514",
        "group": "last-30-days",
        "lat": 10.52985978450961,
        "lon": 83.68404571700728,
        "alt_km": 409.75495489058085,
        "timestamp": "2025-12-09T14:52:24.941711+00:00",
        "meta_object_name": "STARLINK-35514",
        "meta_object_id": "2025-265V",
        "meta_epoch": "2025-12-09T06:00:02.000160",
        "meta_mean_motion": 15.53416328,
        "meta_eccentricity": 0.00015247,
        "meta_inclination": 43,
        "meta_ra_of_asc_node": 74.3477,
        "meta_arg_of_pericenter": 273.3971,
        "meta_mean_anomaly": 193.2024,
        "meta_ephemeris_type": 0,
        "meta_classification_type": "U",
        "meta_norad_cat_id": 66535,
        "meta_element_set_no": 999,
        "meta_rev_at_epoch": 443,
        "meta_bstar": -0.031905357,
        "meta_mean_motion_dot": -0.01836118,
        "meta_mean_motion_ddot": 0,
        "tle_line1": "1 66535U 25265V   25343.25002315 -.01836118  00000+0 -31905-1 0  9998",
        "tle_line2": "2 66535  43.0000  74.3477 0001524 273.3971 193.2024 15.53416328  4430"
      },
      "geometry": {
        "type": "Point",
        "coordinates": [
          83.68404571700728,
          10.52985978450961
        ]
      }
    },
    {
      "type": "Feature",
      "properties": {
        "norad_id": 66536,
        "name": "STARLINK-35640",
        "group": "last-30-days",
        "lat": 11.808144886757258,
        "lon": 85.13776509954167,
        "alt_km": 409.5419039220169,
        "timestamp": "2025-12-09T14:52:24.941721+00:00",
        "meta_object_name": "STARLINK-35640",
        "meta_object_id": "2025-265W",
        "meta_epoch": "2025-12-09T06:00:02.000160",
        "meta_mean_motion": 15.53419598,
        "meta_eccentricity": 0.00016683,
        "meta_inclination": 42.9999,
        "meta_ra_of_asc_node": 74.3429,
        "meta_arg_of_pericenter": 276.3094,
        "meta_mean_anomaly": 192.2022,
        "meta_ephemeris_type": 0,
        "meta_classification_type": "U",
        "meta_norad_cat_id": 66536,
        "meta_element_set_no": 999,
        "meta_rev_at_epoch": 441,
        "meta_bstar": -0.031918683,
        "meta_mean_motion_dot": -0.01837079,
        "meta_mean_motion_ddot": 0,
        "tle_line1": "1 66536U 25265W   25343.25002315 -.01837079  00000+0 -31919-1 0  9991",
        "tle_line2": "2 66536  42.9999  74.3429 0001668 276.3094 192.2022 15.53419598  4418"
      },
      "geometry": {
        "type": "Point",
        "coordinates": [
          85.13776509954167,
          11.808144886757258
        ]
      }
    },
    {
      "type": "Feature",
      "properties": {
        "norad_id": 66537,
        "name": "STARLINK-35582",
        "group": "last-30-days",
        "lat": 13.078075376267345,
        "lon": 86.6039016106058,
        "alt_km": 409.45347919663254,
        "timestamp": "2025-12-09T14:52:24.941731+00:00",
        "meta_object_name": "STARLINK-35582",
        "meta_object_id": "2025-265X",
        "meta_epoch": "2025-12-09T06:00:02.000160",
        "meta_mean_motion": 15.53418506,
        "meta_eccentricity": 0.00015513,
        "meta_inclination": 43.0001,
        "meta_ra_of_asc_node": 74.338,
        "meta_arg_of_pericenter": 273.192,
        "meta_mean_anomaly": 197.2389,
        "meta_ephemeris_type": 0,
        "meta_classification_type": "U",
        "meta_norad_cat_id": 66537,
        "meta_element_set_no": 999,
        "meta_rev_at_epoch": 443,
        "meta_bstar": -0.031914672,
        "meta_mean_motion_dot": -0.01836739,
        "meta_mean_motion_ddot": 0,
        "tle_line1": "1 66537U 25265X   25343.25002315 -.01836739  00000+0 -31915-1 0  9990",
        "tle_line2": "2 66537  43.0001  74.3380 0001551 273.1920 197.2389 15.53418506  4436"
      },
      "geometry": {
        "type": "Point",
        "coordinates": [
          86.6039016106058,
          13.078075376267345
        ]
      }
    }
  ]
}